CCSDS_OMM_VERS = 2.0
CREATION_DATE  = 
ORIGINATOR     = 

OBJECT_NAME    = ALOS-2
OBJECT_ID      = 2014-029A
CENTER_NAME    = EARTH
REF_FRAME      = TEME
TIME_SYSTEM    = UTC
MEAN_ELEMENT_THEORY = SGP/SGP4

EPOCH          = 2026-03-10T12:43:46.159104
MEAN_MOTION    = 14.79506610
ECCENTRICITY   = .0001388
INCLINATION    = 97.9189
RA_OF_ASC_NODE = 168.1152
ARG_OF_PERICENTER = 97.1905
MEAN_ANOMALY   = 262.9464

EPHEMERIS_TYPE = 0
CLASSIFICATION_TYPE = U
NORAD_CAT_ID   = 39766
ELEMENT_SET_NO = 999
REV_AT_EPOCH   = 63699
BSTAR          = .14078E-3
MEAN_MOTION_DOT = .1001E-4
MEAN_MOTION_DDOT = 0

CCSDS_OMM_VERS = 2.0
CREATION_DATE  = 
ORIGINATOR     = 

OBJECT_NAME    = YAOGAN-29
OBJECT_ID      = 2015-069A
CENTER_NAME    = EARTH
REF_FRAME      = TEME
TIME_SYSTEM    = UTC
MEAN_ELEMENT_THEORY = SGP/SGP4

EPOCH          = 2026-03-10T12:52:48.454752
MEAN_MOTION    = 14.82996161
ECCENTRICITY   = .0001878
INCLINATION    = 98.0143
RA_OF_ASC_NODE = 97.9686
ARG_OF_PERICENTER = 34.3493
MEAN_ANOMALY   = 325.7841

EPHEMERIS_TYPE = 0
CLASSIFICATION_TYPE = U
NORAD_CAT_ID   = 41038
ELEMENT_SET_NO = 999
REV_AT_EPOCH   = 55600
BSTAR          = .399E-4
MEAN_MOTION_DOT = .27E-5
MEAN_MOTION_DDOT = 0

CCSDS_OMM_VERS = 2.0
CREATION_DATE  = 
ORIGINATOR     = 

OBJECT_NAME    = ASTRO-H (HITOMI)
OBJECT_ID      = 2016-012A
CENTER_NAME    = EARTH
REF_FRAME      = TEME
TIME_SYSTEM    = UTC
MEAN_ELEMENT_THEORY = SGP/SGP4

EPOCH          = 2026-03-09T23:09:02.707488
MEAN_MOTION    = 15.10008525
ECCENTRICITY   = .00098476
INCLINATION    = 31.0008
RA_OF_ASC_NODE = 354.7735
ARG_OF_PERICENTER = 333.7785
MEAN_ANOMALY   = 26.2354

EPHEMERIS_TYPE = 0
CLASSIFICATION_TYPE = U
NORAD_CAT_ID   = 41337
ELEMENT_SET_NO = 999
REV_AT_EPOCH   = 55227
BSTAR          = .25030993E-3
MEAN_MOTION_DOT = .4267E-4
MEAN_MOTION_DDOT = 0

CCSDS_OMM_VERS = 2.0
CREATION_DATE  = 
ORIGINATOR     = 

OBJECT_NAME    = HXMT (HUIYAN)
OBJECT_ID      = 2017-034A
CENTER_NAME    = EARTH
REF_FRAME      = TEME
TIME_SYSTEM    = UTC
MEAN_ELEMENT_THEORY = SGP/SGP4

EPOCH          = 2026-03-10T07:18:04.322016
MEAN_MOTION    = 15.17476255
ECCENTRICITY   = .0032979
INCLINATION    = 43.0157
RA_OF_ASC_NODE = 13.2567
ARG_OF_PERICENTER = 239.7303
MEAN_ANOMALY   = 120.0280

EPHEMERIS_TYPE = 0
CLASSIFICATION_TYPE = U
NORAD_CAT_ID   = 42758
ELEMENT_SET_NO = 999
REV_AT_EPOCH   = 48263
BSTAR          = .42437E-3
MEAN_MOTION_DOT = .8545E-4
MEAN_MOTION_DDOT = 0

CCSDS_OMM_VERS = 2.0
CREATION_DATE  = 
ORIGINATOR     = 

OBJECT_NAME    = SAOCOM 1A
OBJECT_ID      = 2018-076A
CENTER_NAME    = EARTH
REF_FRAME      = TEME
TIME_SYSTEM    = UTC
MEAN_ELEMENT_THEORY = SGP/SGP4

EPOCH          = 2026-03-09T23:06:42.673824
MEAN_MOTION    = 14.82173643
ECCENTRICITY   = .0001339
INCLINATION    = 97.8895
RA_OF_ASC_NODE = 257.1316
ARG_OF_PERICENTER = 83.6952
MEAN_ANOMALY   = 276.4413

EPHEMERIS_TYPE = 0
CLASSIFICATION_TYPE = U
NORAD_CAT_ID   = 43641
ELEMENT_SET_NO = 999
REV_AT_EPOCH   = 40140
BSTAR          = .17043E-3
MEAN_MOTION_DOT = .1305E-4
MEAN_MOTION_DDOT = 0

CCSDS_OMM_VERS = 2.0
CREATION_DATE  = 
ORIGINATOR     = 

OBJECT_NAME    = H-2A R/B
OBJECT_ID      = 2018-084L
CENTER_NAME    = EARTH
REF_FRAME      = TEME
TIME_SYSTEM    = UTC
MEAN_ELEMENT_THEORY = SGP/SGP4

EPOCH          = 2026-03-10T12:17:04.834464
MEAN_MOTION    = 15.41387629
ECCENTRICITY   = .0025402
INCLINATION    = 98.8729
RA_OF_ASC_NODE = 287.0753
ARG_OF_PERICENTER = 22.4975
MEAN_ANOMALY   = 337.7375

EPHEMERIS_TYPE = 0
CLASSIFICATION_TYPE = U
NORAD_CAT_ID   = 43682
ELEMENT_SET_NO = 999
REV_AT_EPOCH   = 40590
BSTAR          = .56488E-3
MEAN_MOTION_DOT = .23799E-3
MEAN_MOTION_DDOT = 0

CCSDS_OMM_VERS = 2.0
CREATION_DATE  = 
ORIGINATOR     = 

OBJECT_NAME    = CSS (TIANHE)
OBJECT_ID      = 2021-035A
CENTER_NAME    = EARTH
REF_FRAME      = TEME
TIME_SYSTEM    = UTC
MEAN_ELEMENT_THEORY = SGP/SGP4

EPOCH          = 2026-03-10T11:36:11.878848
MEAN_MOTION    = 15.60703934
ECCENTRICITY   = .0006956
INCLINATION    = 41.4662
RA_OF_ASC_NODE = 203.3317
ARG_OF_PERICENTER = 277.6291
MEAN_ANOMALY   = 82.3758

EPHEMERIS_TYPE = 0
CLASSIFICATION_TYPE = U
NORAD_CAT_ID   = 48274
ELEMENT_SET_NO = 999
REV_AT_EPOCH   = 27773
BSTAR          = .33669E-3
MEAN_MOTION_DOT = .28564E-3
MEAN_MOTION_DDOT = 0

CCSDS_OMM_VERS = 2.0
CREATION_DATE  = 
ORIGINATOR     = 

OBJECT_NAME    = COSMOS 2550
OBJECT_ID      = 2021-056A
CENTER_NAME    = EARTH
REF_FRAME      = TEME
TIME_SYSTEM    = UTC
MEAN_ELEMENT_THEORY = SGP/SGP4

EPOCH          = 2026-03-08T11:22:34.326624
MEAN_MOTION    = 15.33829151
ECCENTRICITY   = .00083692
INCLINATION    = 67.1451
RA_OF_ASC_NODE = 44.6088
ARG_OF_PERICENTER = 269.6014
MEAN_ANOMALY   = 90.4182

EPHEMERIS_TYPE = 0
CLASSIFICATION_TYPE = U
NORAD_CAT_ID   = 48865
ELEMENT_SET_NO = 999
REV_AT_EPOCH   = 26327
BSTAR          = -.13338E-7
MEAN_MOTION_DOT = -.192E-5
MEAN_MOTION_DDOT = 0

CCSDS_OMM_VERS = 2.0
CREATION_DATE  = 
ORIGINATOR     = 

OBJECT_NAME    = CZ-2C R/B
OBJECT_ID      = 2022-058K
CENTER_NAME    = EARTH
REF_FRAME      = TEME
TIME_SYSTEM    = UTC
MEAN_ELEMENT_THEORY = SGP/SGP4

EPOCH          = 2026-03-10T02:11:00.320352
MEAN_MOTION    = 15.54266256
ECCENTRICITY   = .00421494
INCLINATION    = 50.1894
RA_OF_ASC_NODE = 316.2255
ARG_OF_PERICENTER = 202.5748
MEAN_ANOMALY   = 157.3370

EPHEMERIS_TYPE = 0
CLASSIFICATION_TYPE = U
NORAD_CAT_ID   = 52794
ELEMENT_SET_NO = 999
REV_AT_EPOCH   = 21019
BSTAR          = .57032723E-3
MEAN_MOTION_DOT = .39191E-3
MEAN_MOTION_DDOT = 0

CCSDS_OMM_VERS = 2.0
CREATION_DATE  = 
ORIGINATOR     = 

OBJECT_NAME    = CZ-2C R/B
OBJECT_ID      = 2022-132E
CENTER_NAME    = EARTH
REF_FRAME      = TEME
TIME_SYSTEM    = UTC
MEAN_ELEMENT_THEORY = SGP/SGP4

EPOCH          = 2026-03-10T12:35:50.419968
MEAN_MOTION    = 15.61920631
ECCENTRICITY   = .0020627
INCLINATION    = 97.2967
RA_OF_ASC_NODE = 72.8671
ARG_OF_PERICENTER = 88.6324
MEAN_ANOMALY   = 271.7296

EPHEMERIS_TYPE = 0
CLASSIFICATION_TYPE = U
NORAD_CAT_ID   = 54039
ELEMENT_SET_NO = 999
REV_AT_EPOCH   = 19050
BSTAR          = .50113E-3
MEAN_MOTION_DOT = .44069E-3
MEAN_MOTION_DDOT = 0

CCSDS_OMM_VERS = 2.0
CREATION_DATE  = 
ORIGINATOR     = 

OBJECT_NAME    = GSLV R/B
OBJECT_ID      = 2022-138AN
CENTER_NAME    = EARTH
REF_FRAME      = TEME
TIME_SYSTEM    = UTC
MEAN_ELEMENT_THEORY = SGP/SGP4

EPOCH          = 2026-03-10T07:44:26.039040
MEAN_MOTION    = 14.96780192
ECCENTRICITY   = .0023046
INCLINATION    = 87.3874
RA_OF_ASC_NODE = 166.1505
ARG_OF_PERICENTER = 144.6084
MEAN_ANOMALY   = 215.6683

EPHEMERIS_TYPE = 0
CLASSIFICATION_TYPE = U
NORAD_CAT_ID   = 54149
ELEMENT_SET_NO = 999
REV_AT_EPOCH   = 18402
BSTAR          = .34611E-3
MEAN_MOTION_DOT = .4007E-4
MEAN_MOTION_DDOT = 0

